{
  "type": "FeatureCollection",
  "features": [
    {
      "type": "Feature",
      "properties": {
        "norad_id": 33412,
        "name": "COSMO-SKYMED 3",
        "group": "resource",
        "lat": -30.799007097166648,
        "lon": -145.3891938846582,
        "alt_km": 567.3976947479141,
        "timestamp": "2025-12-25T07:00:33.699274+00:00",
        "meta_object_name": "COSMO-SKYMED 3",
        "meta_object_id": "2008-054A",
        "meta_epoch": "2025-12-24T23:10:18.349824",
        "meta_mean_motion": 15.05462841,
        "meta_eccentricity": 0.00171094,
        "meta_inclination": 97.8453,
        "meta_ra_of_asc_node": 209.5643,
        "meta_arg_of_pericenter": 132.0187,
        "meta_mean_anomaly": 228.2499,
        "meta_ephemeris_type": 0,
        "meta_classification_type": "U",
        "meta_norad_cat_id": 33412,
        "meta_element_set_no": 999,
        "meta_rev_at_epoch": 93071,
        "meta_bstar": 0.00048899538,
        "meta_mean_motion_dot": 6.985e-05,
        "meta_mean_motion_ddot": 0,
        "tle_line1": "1 33412U 08054A   25358.96549016  .00006985  00000+0  48900-3 0  9994",
        "tle_line2": "2 33412  97.8453 209.5643 0017109 132.0187 228.2499 15.05462841930712"
      },
      "geometry": {
        "type": "Point",
        "coordinates": [
          -145.3891938846582,
          -30.799007097166648
        ]
      }
    },
    {
      "type": "Feature",
      "properties": {
        "norad_id": 33446,
        "name": "YAOGAN-4",
        "group": "resource",
        "lat": 5.586666862246409,
        "lon": -71.51114823106904,
        "alt_km": 622.510010711977,
        "timestamp": "2025-12-25T07:00:33.699285+00:00",
        "meta_object_name": "YAOGAN-4",
        "meta_object_id": "2008-061A",
        "meta_epoch": "2025-12-24T19:38:47.517792",
        "meta_mean_motion": 14.82716251,
        "meta_eccentricity": 0.00129837,
        "meta_inclination": 97.9197,
        "meta_ra_of_asc_node": 288.8002,
        "meta_arg_of_pericenter": 280.4799,
        "meta_mean_anomaly": 79.4951,
        "meta_ephemeris_type": 0,
        "meta_classification_type": "U",
        "meta_norad_cat_id": 33446,
        "meta_element_set_no": 999,
        "meta_rev_at_epoch": 91982,
        "meta_bstar": 0.00017083405,
        "meta_mean_motion_dot": 1.327e-05,
        "meta_mean_motion_ddot": 0,
        "tle_line1": "1 33446U 08061A   25358.81860553  .00001327  00000+0  17083-3 0  9998",
        "tle_line2": "2 33446  97.9197 288.8002 0012983 280.4799  79.4951 14.82716251919825"
      },
      "geometry": {
        "type": "Point",
        "coordinates": [
          -71.51114823106904,
          5.586666862246409
        ]
      }
    },
    {
      "type": "Feature",
      "properties": {
        "norad_id": 33492,
        "name": "GOSAT (IBUKI)",
        "group": "resource",
        "lat": 81.05288884084865,
        "lon": -7.858197239822305,
        "alt_km": 660.7558533319907,
        "timestamp": "2025-12-25T07:00:33.699298+00:00",
        "meta_object_name": "GOSAT (IBUKI)",
        "meta_object_id": "2009-002A",
        "meta_epoch": "2025-12-24T20:45:54.808416",
        "meta_mean_motion": 14.6754785,
        "meta_eccentricity": 0.00010267,
        "meta_inclination": 98.0771,
        "meta_ra_of_asc_node": 107.3001,
        "meta_arg_of_pericenter": 104.8955,
        "meta_mean_anomaly": 255.2363,
        "meta_ephemeris_type": 0,
        "meta_classification_type": "U",
        "meta_norad_cat_id": 33492,
        "meta_element_set_no": 999,
        "meta_rev_at_epoch": 90589,
        "meta_bstar": 0.00016267685,
        "meta_mean_motion_dot": 8.75e-06,
        "meta_mean_motion_ddot": 0,
        "tle_line1": "1 33492U 09002A   25358.86521769  .00000875  00000+0  16268-3 0  9994",
        "tle_line2": "2 33492  98.0771 107.3001 0001026 104.8955 255.2363 14.67547850905892"
      },
      "geometry": {
        "type": "Point",
        "coordinates": [
          -7.858197239822305,
          81.05288884084865
        ]
      }
    },
    {
      "type": "Feature",
      "properties": {
        "norad_id": 35681,
        "name": "DEIMOS-1",
        "group": "resource",
        "lat": 33.50534273566668,
        "lon": -15.539089548496055,
        "alt_km": 643.0701388236403,
        "timestamp": "2025-12-25T07:00:33.699310+00:00",
        "meta_object_name": "DEIMOS-1",
        "meta_object_id": "2009-041A",
        "meta_epoch": "2025-12-24T23:50:13.325856",
        "meta_mean_motion": 14.74969994,
        "meta_eccentricity": 0.00024717,
        "meta_inclination": 97.7156,
        "meta_ra_of_asc_node": 159.0267,
        "meta_arg_of_pericenter": 60.6986,
        "meta_mean_anomaly": 299.447,
        "meta_ephemeris_type": 0,
        "meta_classification_type": "U",
        "meta_norad_cat_id": 35681,
        "meta_element_set_no": 999,
        "meta_rev_at_epoch": 88120,
        "meta_bstar": 9.4421262e-05,
        "meta_mean_motion_dot": 5.87e-06,
        "meta_mean_motion_ddot": 0,
        "tle_line1": "1 35681U 09041A   25358.99320979  .00000587  00000+0  94421-4 0  9991",
        "tle_line2": "2 35681  97.7156 159.0267 0002471  60.6986 299.4470 14.74969994881205"
      },
      "geometry": {
        "type": "Point",
        "coordinates": [
          -15.539089548496055,
          33.50534273566668
        ]
      }
    },
    {
      "type": "Feature",
      "properties": {
        "norad_id": 35682,
        "name": "DUBAISAT-1",
        "group": "resource",
        "lat": 64.57403974032731,
        "lon": 112.62550956671112,
        "alt_km": 645.9705556112158,
        "timestamp": "2025-12-25T07:00:33.699322+00:00",
        "meta_object_name": "DUBAISAT-1",
        "meta_object_id": "2009-041B",
        "meta_epoch": "2025-12-24T20:56:26.971296",
        "meta_mean_motion": 14.74636439,
        "meta_eccentricity": 0.00092735,
        "meta_inclination": 97.9798,
        "meta_ra_of_asc_node": 129.3742,
        "meta_arg_of_pericenter": 270.8302,
        "meta_mean_anomaly": 89.1844,
        "meta_ephemeris_type": 0,
        "meta_classification_type": "U",
        "meta_norad_cat_id": 35682,
        "meta_element_set_no": 999,
        "meta_rev_at_epoch": 87940,
        "meta_bstar": 0.00020991204,
        "meta_mean_motion_dot": 1.35e-05,
        "meta_mean_motion_ddot": 0,
        "tle_line1": "1 35682U 09041B   25358.87253439  .00001350  00000+0  20991-3 0  9994",
        "tle_line2": "2 35682  97.9798 129.3742 0009273 270.8302  89.1844 14.74636439879405"
      },
      "geometry": {
        "type": "Point",
        "coordinates": [
          112.62550956671112,
          64.57403974032731
        ]
      }
    },
    {
      "type": "Feature",
      "properties": {
        "norad_id": 35931,
        "name": "OCEANSAT-2",
        "group": "resource",
        "lat": 77.56843274761938,
        "lon": -140.39557588567573,
        "alt_km": 887.2626503772408,
        "timestamp": "2025-12-25T07:00:33.699333+00:00",
        "meta_object_name": "OCEANSAT-2",
        "meta_object_id": "2009-051A",
        "meta_epoch": "2025-12-24T23:40:28.998336",
        "meta_mean_motion": 13.99622921,
        "meta_eccentricity": 0.00158975,
        "meta_inclination": 98.2218,
        "meta_ra_of_asc_node": 358.3443,
        "meta_arg_of_pericenter": 12.8392,
        "meta_mean_anomaly": 347.3177,
        "meta_ephemeris_type": 0,
        "meta_classification_type": "U",
        "meta_norad_cat_id": 35931,
        "meta_element_set_no": 999,
        "meta_rev_at_epoch": 85496,
        "meta_bstar": 9.155948e-06,
        "meta_mean_motion_dot": -2.4e-07,
        "meta_mean_motion_ddot": 0,
        "tle_line1": "1 35931U 09051A   25358.98644674 -.00000024  00000+0  91559-5 0  9997",
        "tle_line2": "2 35931  98.2218 358.3443 0015897  12.8392 347.3177 13.99622921854966"
      },
      "geometry": {
        "type": "Point",
        "coordinates": [
          -140.39557588567573,
          77.56843274761938
        ]
      }
    },
    {
      "type": "Feature",
      "properties": {
        "norad_id": 35946,
        "name": "WORLDVIEW-2 (WV-2)",
        "group": "resource",
        "lat": 39.127867043042784,
        "lon": -102.82736405358759,
        "alt_km": 763.6391280460475,
        "timestamp": "2025-12-25T07:00:33.699356+00:00",
        "meta_object_name": "WORLDVIEW-2 (WV-2)",
        "meta_object_id": "2009-055A",
        "meta_epoch": "2025-12-24T22:00:29.574144",
        "meta_mean_motion": 14.37729283,
        "meta_eccentricity": 0.00047241,
        "meta_inclination": 98.4772,
        "meta_ra_of_asc_node": 69.8343,
        "meta_arg_of_pericenter": 40.6208,
        "meta_mean_anomaly": 319.5331,
        "meta_ephemeris_type": 0,
        "meta_classification_type": "U",
        "meta_norad_cat_id": 35946,
        "meta_element_set_no": 999,
        "meta_rev_at_epoch": 85060,
        "meta_bstar": 7.3691526e-05,
        "meta_mean_motion_dot": 1.78e-06,
        "meta_mean_motion_ddot": 0,
        "tle_line1": "1 35946U 09055A   25358.91700896  .00000178  00000+0  73692-4 0  9995",
        "tle_line2": "2 35946  98.4772  69.8343 0004724  40.6208 319.5331 14.37729283850606"
      },
      "geometry": {
        "type": "Point",
        "coordinates": [
          -102.82736405358759,
          39.127867043042784
        ]
      }
    }
  ]
}